*******************************************************************************
Ephemeris / WWW_USER Fri Mar  7 10:13:42 2025 Pasadena, USA      / Horizons    
*******************************************************************************
Target body name: (2018 PN20)                     {source: JPL#3}
Center body name: Earth (399)                     {source: DE441}
Center-site name: Mauna Kea
*******************************************************************************
Start time      : A.D. 2018-Dec-06 03:52:00.0000 UT      
Stop  time      : A.D. 2018-Dec-06 16:33:00.0000 UT      
Step-size       : 1 minutes
*******************************************************************************
Target pole/equ : undefined
Target radii    : undefined                                                    
Center geodetic : 204.5278, 19.8260847, 4.21024   {E-lon(deg),Lat(deg),Alt(km)}
Center cylindric: 204.5278, 6006.35451, 2151.0229 {E-lon(deg),Dxy(km),Dz(km)}
Center pole/equ : ITRF93                          {East-longitude positive}
Center radii    : 6378.137, 6378.137, 6356.752 km {Equator_a, b, pole_c}       
Target primary  : Sun
Vis. interferer : MOON (R_eq= 1737.400) km        {source: DE441}
Rel. light bend : Sun                             {source: DE441}
Rel. lght bnd GM: 1.3271E+11 km^3/s^2                                          
Small-body perts: Yes                             {source: SB441-N16}
Atmos refraction: NO (AIRLESS)
RA format       : HMS
Time format     : CAL 
Calendar mode   : Mixed Julian/Gregorian
RTS-only print  : NO       
EOP file        : eop.250306.p250602                                           
EOP coverage    : DATA-BASED 1962-JAN-20 TO 2025-MAR-06. PREDICTS-> 2025-JUN-01
Units conversion: 1 au= 149597870.700 km, c= 299792.458 km/s, 1 day= 86400.0 s 
Table cut-offs 1: Elevation (-90.0deg=NO ),Airmass (>38.000=NO), Daylight (YES)
Table cut-offs 2: Solar elongation (  0.0,180.0=NO ),Local Hour Angle( 0.0=NO )
Table cut-offs 3: RA/DEC angular rate (     0.0=NO )                           
*******************************************************************************
Initial IAU76/J2000 heliocentric ecliptic osculating elements (au, days, deg.):
  EPOCH=  2458343.5 ! 2018-Aug-13.00 (TDB)         Residual RMS= .1225         
   EC= .3775096637251725   QR= 1.051585063958075   TP= 2458346.3972912203      
   OM= 142.6884316149991   W=  180.4368328240348   IN= 18.91630320954361       
  Equivalent ICRF heliocentric cartesian coordinates (au, au/d):
   X= 8.077039416640637E-01  Y=-6.245728834467501E-01  Z=-2.534674905132982E-01
  VX= 1.177737749455786E-02 VY= 1.576958466977457E-02 VZ=-1.142216194306418E-04
Asteroid physical parameters (km, seconds, rotational period in hours):        
   GM= n.a.                RAD= n.a.               ROTPER= n.a.                
   H= 25.1                 G= .150                 B-V= n.a.                   
                           ALBEDO= n.a.            STYP= n.a.                  
*******************************************************************************
 Date__(UT)__HR:MN     R.A._________(ICRF)_________DEC
******************************************************
$$SOE
 2018-Dec-06 14:07     02 34 19.263845 -28 45 41.41434
 2018-Dec-06 14:08     02 34 19.275088 -28 45 40.08684
 2018-Dec-06 14:09     02 34 19.286348 -28 45 38.75935
 2018-Dec-06 14:10     02 34 19.297625 -28 45 37.43187
 2018-Dec-06 14:11     02 34 19.308920 -28 45 36.10440
 2018-Dec-06 14:12     02 34 19.320232 -28 45 34.77693
 2018-Dec-06 14:13     02 34 19.331562 -28 45 33.44948
 2018-Dec-06 14:14     02 34 19.342909 -28 45 32.12203
 2018-Dec-06 14:15     02 34 19.354274 -28 45 30.79459
 2018-Dec-06 14:16     02 34 19.365656 -28 45 29.46717
 2018-Dec-06 14:17     02 34 19.377055 -28 45 28.13975
 2018-Dec-06 14:18     02 34 19.388472 -28 45 26.81235
 2018-Dec-06 14:19     02 34 19.399907 -28 45 25.48495
 2018-Dec-06 14:20     02 34 19.411358 -28 45 24.15757
 2018-Dec-06 14:21     02 34 19.422827 -28 45 22.83020
 2018-Dec-06 14:22     02 34 19.434314 -28 45 21.50285
 2018-Dec-06 14:23     02 34 19.445817 -28 45 20.17550
 2018-Dec-06 14:24     02 34 19.457339 -28 45 18.84817
 2018-Dec-06 14:25     02 34 19.468877 -28 45 17.52086
 2018-Dec-06 14:26     02 34 19.480433 -28 45 16.19356
 2018-Dec-06 14:27     02 34 19.492006 -28 45 14.86627
 2018-Dec-06 14:28     02 34 19.503596 -28 45 13.53901
 2018-Dec-06 14:29     02 34 19.515204 -28 45 12.21175
 2018-Dec-06 14:30     02 34 19.526829 -28 45 10.88452
 2018-Dec-06 14:31     02 34 19.538472 -28 45 09.55730
 2018-Dec-06 14:32     02 34 19.550131 -28 45 08.23010
 2018-Dec-06 14:33     02 34 19.561808 -28 45 06.90291
 2018-Dec-06 14:34     02 34 19.573502 -28 45 05.57575
 2018-Dec-06 14:35     02 34 19.585214 -28 45 04.24860
 2018-Dec-06 14:36     02 34 19.596942 -28 45 02.92147
 2018-Dec-06 14:37     02 34 19.608688 -28 45 01.59437
 2018-Dec-06 14:38     02 34 19.620451 -28 45 00.26728
 2018-Dec-06 14:39     02 34 19.632231 -28 44 58.94021
 2018-Dec-06 14:40     02 34 19.644029 -28 44 57.61317
 2018-Dec-06 14:41     02 34 19.655843 -28 44 56.28614
 2018-Dec-06 14:42     02 34 19.667675 -28 44 54.95914
 2018-Dec-06 14:43     02 34 19.679524 -28 44 53.63216
 2018-Dec-06 14:44     02 34 19.691390 -28 44 52.30520
 2018-Dec-06 14:45     02 34 19.703273 -28 44 50.97827
 2018-Dec-06 14:46     02 34 19.715173 -28 44 49.65136
 2018-Dec-06 14:47     02 34 19.727090 -28 44 48.32448
 2018-Dec-06 14:48     02 34 19.739024 -28 44 46.99761
 2018-Dec-06 14:49     02 34 19.750976 -28 44 45.67078
 2018-Dec-06 14:50     02 34 19.762944 -28 44 44.34397
 2018-Dec-06 14:51     02 34 19.774929 -28 44 43.01718
 2018-Dec-06 14:52     02 34 19.786931 -28 44 41.69043
 2018-Dec-06 14:53     02 34 19.798950 -28 44 40.36370
 2018-Dec-06 14:54     02 34 19.810987 -28 44 39.03699
 2018-Dec-06 14:55     02 34 19.823040 -28 44 37.71032
 2018-Dec-06 14:56     02 34 19.835110 -28 44 36.38367
 2018-Dec-06 14:57     02 34 19.847196 -28 44 35.05705
 2018-Dec-06 14:58     02 34 19.859300 -28 44 33.73046
 2018-Dec-06 14:59     02 34 19.871421 -28 44 32.40390
 2018-Dec-06 15:00     02 34 19.883558 -28 44 31.07737
 2018-Dec-06 15:01     02 34 19.895712 -28 44 29.75087
 2018-Dec-06 15:02     02 34 19.907883 -28 44 28.42440
 2018-Dec-06 15:03     02 34 19.920071 -28 44 27.09796
 2018-Dec-06 15:04     02 34 19.932276 -28 44 25.77155
 2018-Dec-06 15:05     02 34 19.944497 -28 44 24.44518
 2018-Dec-06 15:06     02 34 19.956735 -28 44 23.11884
 2018-Dec-06 15:07     02 34 19.968989 -28 44 21.79253
 2018-Dec-06 15:08     02 34 19.981261 -28 44 20.46625
 2018-Dec-06 15:09     02 34 19.993548 -28 44 19.14001
 2018-Dec-06 15:10     02 34 20.005853 -28 44 17.81381
 2018-Dec-06 15:11     02 34 20.018174 -28 44 16.48763
 2018-Dec-06 15:12     02 34 20.030512 -28 44 15.16150
 2018-Dec-06 15:13     02 34 20.042866 -28 44 13.83540
 2018-Dec-06 15:14     02 34 20.055236 -28 44 12.50933
 2018-Dec-06 15:15     02 34 20.067624 -28 44 11.18330
 2018-Dec-06 15:16     02 34 20.080027 -28 44 09.85731
 2018-Dec-06 15:17     02 34 20.092447 -28 44 08.53135
 2018-Dec-06 15:18     02 34 20.104884 -28 44 07.20544
 2018-Dec-06 15:19     02 34 20.117337 -28 44 05.87956
 2018-Dec-06 15:20     02 34 20.129806 -28 44 04.55372
 2018-Dec-06 15:21     02 34 20.142291 -28 44 03.22792
 2018-Dec-06 15:22     02 34 20.154793 -28 44 01.90216
 2018-Dec-06 15:23     02 34 20.167311 -28 44 00.57643
 2018-Dec-06 15:24     02 34 20.179846 -28 43 59.25075
 2018-Dec-06 15:25     02 34 20.192396 -28 43 57.92511
 2018-Dec-06 15:26 A   02 34 20.204963 -28 43 56.59951
 2018-Dec-06 15:27 A   02 34 20.217546 -28 43 55.27395
 2018-Dec-06 15:28 A   02 34 20.230145 -28 43 53.94844
 2018-Dec-06 15:29 A   02 34 20.242761 -28 43 52.62296
 2018-Dec-06 15:30 A   02 34 20.255392 -28 43 51.29753
 2018-Dec-06 15:31 A   02 34 20.268039 -28 43 49.97215
 2018-Dec-06 15:32 A   02 34 20.280703 -28 43 48.64680
 2018-Dec-06 15:33 A   02 34 20.293382 -28 43 47.32150
 2018-Dec-06 15:34 A   02 34 20.306077 -28 43 45.99625
 2018-Dec-06 15:35 A   02 34 20.318789 -28 43 44.67104
 2018-Dec-06 15:36 A   02 34 20.331516 -28 43 43.34587
 2018-Dec-06 15:37 A   02 34 20.344259 -28 43 42.02075
 2018-Dec-06 15:38 A   02 34 20.357018 -28 43 40.69568
 2018-Dec-06 15:39 A   02 34 20.369792 -28 43 39.37065
 2018-Dec-06 15:40 A   02 34 20.382583 -28 43 38.04567
 2018-Dec-06 15:41 A   02 34 20.395389 -28 43 36.72074
 2018-Dec-06 15:42 A   02 34 20.408211 -28 43 35.39585
 2018-Dec-06 15:43 A   02 34 20.421049 -28 43 34.07102
 2018-Dec-06 15:44 A   02 34 20.433902 -28 43 32.74623
 2018-Dec-06 15:45 A   02 34 20.446771 -28 43 31.42149
 2018-Dec-06 15:46 A   02 34 20.459655 -28 43 30.09680
 2018-Dec-06 15:47 A   02 34 20.472555 -28 43 28.77216
 2018-Dec-06 15:48 A   02 34 20.485471 -28 43 27.44757
 2018-Dec-06 15:49 A   02 34 20.498402 -28 43 26.12303
 2018-Dec-06 15:50 A   02 34 20.511348 -28 43 24.79854
 2018-Dec-06 15:51 A   02 34 20.524310 -28 43 23.47411
 2018-Dec-06 15:52 A   02 34 20.537287 -28 43 22.14972
 2018-Dec-06 15:53 N   02 34 20.550280 -28 43 20.82539
 2018-Dec-06 15:54 N   02 34 20.563287 -28 43 19.50111
 2018-Dec-06 15:55 N   02 34 20.576311 -28 43 18.17688
 2018-Dec-06 15:56 N   02 34 20.589349 -28 43 16.85271
 2018-Dec-06 15:57 N   02 34 20.602402 -28 43 15.52859
 2018-Dec-06 15:58 N   02 34 20.615471 -28 43 14.20452
 2018-Dec-06 15:59 N   02 34 20.628555 -28 43 12.88051
 2018-Dec-06 16:00 N   02 34 20.641654 -28 43 11.55655
 2018-Dec-06 16:01 N   02 34 20.654767 -28 43 10.23265
 2018-Dec-06 16:02 Nm  02 34 20.667896 -28 43 08.90881
 2018-Dec-06 16:03 Nm  02 34 20.681040 -28 43 07.58502
 2018-Dec-06 16:04 Nm  02 34 20.694199 -28 43 06.26129
 2018-Dec-06 16:05 Nm  02 34 20.707373 -28 43 04.93761
 2018-Dec-06 16:06 Nm  02 34 20.720561 -28 43 03.61399
 2018-Dec-06 16:07 Nm  02 34 20.733764 -28 43 02.29043
 2018-Dec-06 16:08 Nm  02 34 20.746983 -28 43 00.96693
 2018-Dec-06 16:09 Nm  02 34 20.760215 -28 42 59.64348
